{
  "type": "FeatureCollection",
  "features": [
    {
      "type": "Feature",
      "properties": {
        "norad_id": 34554,
        "name": "COSMOS 2251 DEB",
        "group": "cosmos-2251-debris",
        "lat": 74.01446334040955,
        "lon": 45.33521701089013,
        "alt_km": 753.4141804699557,
        "timestamp": "2025-12-05T04:52:15.684818+00:00",
        "meta_object_name": "COSMOS 2251 DEB",
        "meta_object_id": "1993-036UQ",
        "meta_epoch": "2025-12-02T18:19:59.022048",
        "meta_mean_motion": 14.37902673,
        "meta_eccentricity": 0.00225472,
        "meta_inclination": 74.0383,
        "meta_ra_of_asc_node": 317.3604,
        "meta_arg_of_pericenter": 22.1475,
        "meta_mean_anomaly": 47.5558,
        "meta_ephemeris_type": 0,
        "meta_classification_type": "U",
        "meta_norad_cat_id": 34554,
        "meta_element_set_no": 999,
        "meta_rev_at_epoch": 87612,
        "meta_bstar": 0.0004572497,
        "meta_mean_motion_dot": 1.358e-05,
        "meta_mean_motion_ddot": 0,
        "tle_line1": "1 34554U 93036UQ  25336.76387757  .00001358  00000+0  45725-3 0  9993",
        "tle_line2": "2 34554  74.0383 317.3604 0022547  22.1475  47.5558 14.37902673876123"
      },
      "geometry": {
        "type": "Point",
        "coordinates": [
          45.33521701089013,
          74.01446334040955
        ]
      }
    },
    {
      "type": "Feature",
      "properties": {
        "norad_id": 34556,
        "name": "COSMOS 2251 DEB",
        "group": "cosmos-2251-debris",
        "lat": -67.0309901903573,
        "lon": 2.221374020777846,
        "alt_km": 640.7079366327243,
        "timestamp": "2025-12-05T04:52:15.684827+00:00",
        "meta_object_name": "COSMOS 2251 DEB",
        "meta_object_id": "1993-036US",
        "meta_epoch": "2025-12-04T13:23:51.065088",
        "meta_mean_motion": 14.77388496,
        "meta_eccentricity": 0.0008977,
        "meta_inclination": 74.0148,
        "meta_ra_of_asc_node": 140.9288,
        "meta_arg_of_pericenter": 199.583,
        "meta_mean_anomaly": 225.9072,
        "meta_ephemeris_type": 0,
        "meta_classification_type": "U",
        "meta_norad_cat_id": 34556,
        "meta_element_set_no": 999,
        "meta_rev_at_epoch": 88208,
        "meta_bstar": 0.0053342,
        "meta_mean_motion_dot": 0.00038156,
        "meta_mean_motion_ddot": 0,
        "tle_line1": "1 34556U 93036US  25338.55822992  .00038156  00000+0  53342-2 0  9998",
        "tle_line2": "2 34556  74.0148 140.9288 0008977 199.5830 225.9072 14.77388496882087"
      },
      "geometry": {
        "type": "Point",
        "coordinates": [
          2.221374020777846,
          -67.0309901903573
        ]
      }
    },
    {
      "type": "Feature",
      "properties": {
        "norad_id": 34560,
        "name": "COSMOS 2251 DEB",
        "group": "cosmos-2251-debris",
        "lat": -56.98579036715839,
        "lon": 130.6321817292037,
        "alt_km": 657.0729875291472,
        "timestamp": "2025-12-05T04:52:15.684836+00:00",
        "meta_object_name": "COSMOS 2251 DEB",
        "meta_object_id": "1993-036UW",
        "meta_epoch": "2025-12-03T06:37:21.000000",
        "meta_mean_motion": 14.71719361,
        "meta_eccentricity": 0.0015384,
        "meta_inclination": 74.0159,
        "meta_ra_of_asc_node": 160.5584,
        "meta_arg_of_pericenter": 241.2457,
        "meta_mean_anomaly": 292.2217,
        "meta_ephemeris_type": 0,
        "meta_classification_type": "U",
        "meta_norad_cat_id": 34560,
        "meta_element_set_no": 999,
        "meta_rev_at_epoch": 88112,
        "meta_bstar": 0.0026421,
        "meta_mean_motion_dot": 0.00016519,
        "meta_mean_motion_ddot": 0,
        "tle_line1": "1 34560U 93036UW  25337.27593750  .00016519  00000+0  26421-2 0  9995",
        "tle_line2": "2 34560  74.0159 160.5584 0015384 241.2457 292.2217 14.71719361881126"
      },
      "geometry": {
        "type": "Point",
        "coordinates": [
          130.6321817292037,
          -56.98579036715839
        ]
      }
    },
    {
      "type": "Feature",
      "properties": {
        "norad_id": 34563,
        "name": "COSMOS 2251 DEB",
        "group": "cosmos-2251-debris",
        "lat": 33.76216020977175,
        "lon": -131.19141637551925,
        "alt_km": 733.5657456797408,
        "timestamp": "2025-12-05T04:52:15.684845+00:00",
        "meta_object_name": "COSMOS 2251 DEB",
        "meta_object_id": "1993-036UZ",
        "meta_epoch": "2025-12-04T09:19:18.439104",
        "meta_mean_motion": 14.46468648,
        "meta_eccentricity": 0.0013779,
        "meta_inclination": 74.0387,
        "meta_ra_of_asc_node": 219.2987,
        "meta_arg_of_pericenter": 313.6787,
        "meta_mean_anomaly": 161.6782,
        "meta_ephemeris_type": 0,
        "meta_classification_type": "U",
        "meta_norad_cat_id": 34563,
        "meta_element_set_no": 999,
        "meta_rev_at_epoch": 88076,
        "meta_bstar": 0.0010368,
        "meta_mean_motion_dot": 3.709e-05,
        "meta_mean_motion_ddot": 0,
        "tle_line1": "1 34563U 93036UZ  25338.38840786  .00003709  00000+0  10368-2 0  9995",
        "tle_line2": "2 34563  74.0387 219.2987 0013779 313.6787 161.6782 14.46468648880763"
      },
      "geometry": {
        "type": "Point",
        "coordinates": [
          -131.19141637551925,
          33.76216020977175
        ]
      }
    },
    {
      "type": "Feature",
      "properties": {
        "norad_id": 34564,
        "name": "COSMOS 2251 DEB",
        "group": "cosmos-2251-debris",
        "lat": -27.364722522282094,
        "lon": -116.56663124455645,
        "alt_km": 749.672890955856,
        "timestamp": "2025-12-05T04:52:15.684855+00:00",
        "meta_object_name": "COSMOS 2251 DEB",
        "meta_object_id": "1993-036VA",
        "meta_epoch": "2025-12-04T13:08:55.860864",
        "meta_mean_motion": 14.40667947,
        "meta_eccentricity": 0.0018684,
        "meta_inclination": 74.0328,
        "meta_ra_of_asc_node": 253.1667,
        "meta_arg_of_pericenter": 358.6191,
        "meta_mean_anomaly": 176.822,
        "meta_ephemeris_type": 0,
        "meta_classification_type": "U",
        "meta_norad_cat_id": 34564,
        "meta_element_set_no": 999,
        "meta_rev_at_epoch": 87888,
        "meta_bstar": 0.00050485,
        "meta_mean_motion_dot": 1.589e-05,
        "meta_mean_motion_ddot": 0,
        "tle_line1": "1 34564U 93036VA  25338.54786876  .00001589  00000+0  50485-3 0  9992",
        "tle_line2": "2 34564  74.0328 253.1667 0018684 358.6191 176.8220 14.40667947878881"
      },
      "geometry": {
        "type": "Point",
        "coordinates": [
          -116.56663124455645,
          -27.364722522282094
        ]
      }
    },
    {
      "type": "Feature",
      "properties": {
        "norad_id": 34567,
        "name": "COSMOS 2251 DEB",
        "group": "cosmos-2251-debris",
        "lat": 65.38034319958001,
        "lon": -48.299658728817825,
        "alt_km": 844.3155883522941,
        "timestamp": "2025-12-05T04:52:15.684864+00:00",
        "meta_object_name": "COSMOS 2251 DEB",
        "meta_object_id": "1993-036VD",
        "meta_epoch": "2025-12-04T15:09:49.531392",
        "meta_mean_motion": 14.24004065,
        "meta_eccentricity": 0.0074632,
        "meta_inclination": 74.04,
        "meta_ra_of_asc_node": 171.3727,
        "meta_arg_of_pericenter": 247.3416,
        "meta_mean_anomaly": 175.4798,
        "meta_ephemeris_type": 0,
        "meta_classification_type": "U",
        "meta_norad_cat_id": 34567,
        "meta_element_set_no": 999,
        "meta_rev_at_epoch": 87009,
        "meta_bstar": 0.00035486,
        "meta_mean_motion_dot": 8.13e-06,
        "meta_mean_motion_ddot": 0,
        "tle_line1": "1 34567U 93036VD  25338.63182328  .00000813  00000+0  35486-3 0  9990",
        "tle_line2": "2 34567  74.0400 171.3727 0074632 247.3416 175.4798 14.24004065870090"
      },
      "geometry": {
        "type": "Point",
        "coordinates": [
          -48.299658728817825,
          65.38034319958001
        ]
      }
    },
    {
      "type": "Feature",
      "properties": {
        "norad_id": 34569,
        "name": "COSMOS 2251 DEB",
        "group": "cosmos-2251-debris",
        "lat": -68.23966948764183,
        "lon": 77.75801749901152,
        "alt_km": 910.2373013347933,
        "timestamp": "2025-12-05T04:52:15.684874+00:00",
        "meta_object_name": "COSMOS 2251 DEB",
        "meta_object_id": "1993-036VF",
        "meta_epoch": "2025-12-04T11:06:36.918720",
        "meta_mean_motion": 14.24717672,
        "meta_eccentricity": 0.0156896,
        "meta_inclination": 73.9904,
        "meta_ra_of_asc_node": 213.1013,
        "meta_arg_of_pericenter": 43.406,
        "meta_mean_anomaly": 18.518,
        "meta_ephemeris_type": 0,
        "meta_classification_type": "U",
        "meta_norad_cat_id": 34569,
        "meta_element_set_no": 999,
        "meta_rev_at_epoch": 86850,
        "meta_bstar": 0.0010346,
        "meta_mean_motion_dot": 2.713e-05,
        "meta_mean_motion_ddot": 0,
        "tle_line1": "1 34569U 93036VF  25338.46292730  .00002713  00000+0  10346-2 0  9990",
        "tle_line2": "2 34569  73.9904 213.1013 0156896  43.4060  18.5180 14.24717672868505"
      },
      "geometry": {
        "type": "Point",
        "coordinates": [
          77.75801749901152,
          -68.23966948764183
        ]
      }
    }
  ]
}